[
   {
      "name": "STARLINK-1573",
      "line1": "1 46061U 20055AL  21092.79575189  .00000978  00000-0  84577-4 0  9993",
      "line2": "2 46061  53.0534 285.6387 0001940  91.4162 268.7049 15.06395342 37447",
      "bstar": 8.4577,
      "inc": 53.0534,
      "raan": 285.6387,
      "ecc": 0.000194,
      "argp": 91.4162,
      "nu": 268.7049,
      "mmo": 15.06395342,
      "a": 6925.36283
   },
   {
      "name": "STARLINK-1574",
      "line1": "1 46062U 20055AM  21092.82892423  .00000679  00000-0  64491-4 0  9992",
      "line2": "2 46062  53.0547 285.4871 0001894  96.5084 263.6121 15.06392206 37413",
      "bstar": 6.4491,
      "inc": 53.0547,
      "raan": 285.4871,
      "ecc": 0.0001894,
      "argp": 96.5084,
      "nu": 263.6121,
      "mmo": 15.06392206,
      "a": 6925.37245
   },
   {
      "name": "STARLINK-1577",
      "line1": "1 46063U 20055AN  21092.89158941 -.00001139  00000-0 -57605-4 0  9993",
      "line2": "2 46063  53.0542 285.2104 0001566  92.3315 267.7853 15.06393229 37450",
      "bstar": -5.7605,
      "inc": 53.0542,
      "raan": 285.2104,
      "ecc": 0.0001566,
      "argp": 92.3315,
      "nu": 267.7853,
      "mmo": 15.06393229,
      "a": 6925.36931
   },
   {
      "name": "STARLINK-1583",
      "line1": "1 46064U 20055AP  21092.79206812 -.00000812  00000-0 -35656-4 0  9993",
      "line2": "2 46064  53.0554 285.6568 0001616  98.3672 261.7500 15.06392934 37444",
      "bstar": -3.5656,
      "inc": 53.0554,
      "raan": 285.6568,
      "ecc": 0.0001616,
      "argp": 98.3672,
      "nu": 261.75,
      "mmo": 15.06392934,
      "a": 6925.37022
   },
   {
      "name": "STARLINK-1515",
      "line1": "1 46065U 20055AQ  21092.91553787  .00001228  00000-0  10130-3 0  9993",
      "line2": "2 46065  53.0564 265.0739 0001937  97.4073 262.7137 15.06400628 37727",
      "bstar": 10.13,
      "inc": 53.0564,
      "raan": 265.0739,
      "ecc": 0.0001937,
      "argp": 97.4073,
      "nu": 262.7137,
      "mmo": 15.06400628,
      "a": 6925.34663
   },
   {
      "name": "STARLINK-1525",
      "line1": "1 46066U 20055AR  21092.85657277  .00000799  00000-0  72586-4 0  9992",
      "line2": "2 46066  53.0583 265.3455 0002178  97.2743 262.8493 15.06393452 37729",
      "bstar": 7.2586,
      "inc": 53.0583,
      "raan": 265.3455,
      "ecc": 0.0002178,
      "argp": 97.2743,
      "nu": 262.8493,
      "mmo": 15.06393452,
      "a": 6925.36863
   },
   {
      "name": "STARLINK-1529",
      "line1": "1 46067U 20055AS  21092.86026009 -.00000710  00000-0 -28726-4 0  9999",
      "line2": "2 46067  53.0580 265.3292 0002880  90.8994 269.2325 15.06392915 37732",
      "bstar": -2.8726,
      "inc": 53.058,
      "raan": 265.3292,
      "ecc": 0.000288,
      "argp": 90.8994,
      "nu": 269.2325,
      "mmo": 15.06392915,
      "a": 6925.37027
   },
   {
      "name": "STARLINK-1532",
      "line1": "1 46068U 20055AT  21092.87131784 -.00000645  00000-0 -24365-4 0  9990",
      "line2": "2 46068  53.0583 265.2778 0002330  96.0712 264.0542 15.06392523 37739",
      "bstar": -2.4365,
      "inc": 53.0583,
      "raan": 265.2778,
      "ecc": 0.000233,
      "argp": 96.0712,
      "nu": 264.0542,
      "mmo": 15.06392523,
      "a": 6925.37147
   },
   {
      "name": "STARLINK-1533",
      "line1": "1 46069U 20055AU  21092.88605471 -.00000822  00000-0 -36264-4 0  9999",
      "line2": "2 46069  53.0573 265.2041 0002352  93.2915 266.8343 15.06401604 37741",
      "bstar": -3.6264,
      "inc": 53.0573,
      "raan": 265.2041,
      "ecc": 0.0002352,
      "argp": 93.2915,
      "nu": 266.8343,
      "mmo": 15.06401604,
      "a": 6925.34364
   },
   {
      "name": "STARLINK-1536",
      "line1": "1 46070U 20055AV  21092.83446488  .00000818  00000-0  73851-4 0  9993",
      "line2": "2 46070  53.0571 265.4392 0002287  93.7939 266.3311 15.06399184 37738",
      "bstar": 7.3851,
      "inc": 53.0571,
      "raan": 265.4392,
      "ecc": 0.0002287,
      "argp": 93.7939,
      "nu": 266.3311,
      "mmo": 15.06399184,
      "a": 6925.35106
   },
   {
      "name": "STARLINK-1538",
      "line1": "1 46071U 20055AW  21092.85288092  .00001352  00000-0  10963-3 0  9999",
      "line2": "2 46071  53.0570 265.3541 0002216 112.1643 247.9582 15.06406488 37734",
      "bstar": 10.963,
      "inc": 53.057,
      "raan": 265.3541,
      "ecc": 0.0002216,
      "argp": 112.1643,
      "nu": 247.9582,
      "mmo": 15.06406488,
      "a": 6925.32867
   },
   {
      "name": "STARLINK-1539",
      "line1": "1 46072U 20055AX  21092.87774050  .00000654  00000-0  62802-4 0  9990",
      "line2": "2 46072  53.0547 265.2729 0002003  99.6826 260.4389 15.06396707 37728",
      "bstar": 6.2802,
      "inc": 53.0547,
      "raan": 265.2729,
      "ecc": 0.0002003,
      "argp": 99.6826,
      "nu": 260.4389,
      "mmo": 15.06396707,
      "a": 6925.35865
   },
   {
      "name": "STARLINK-1542",
      "line1": "1 46073U 20055AY  21092.89342126  .00000721  00000-0  67294-4 0  9993",
      "line2": "2 46073  53.0572 265.1790 0002287  92.0010 268.1241 15.06398223 37738",
      "bstar": 6.7294,
      "inc": 53.0572,
      "raan": 265.179,
      "ecc": 0.0002287,
      "argp": 92.001,
      "nu": 268.1241,
      "mmo": 15.06398223,
      "a": 6925.35401
   },
   {
      "name": "STARLINK-1549",
      "line1": "1 46074U 20055AZ  21092.87869132  .00000581  00000-0  57968-4 0  9994",
      "line2": "2 46074  53.0598 265.2427 0002284 100.2035 259.9212 15.06386716 37720",
      "bstar": 5.7968,
      "inc": 53.0598,
      "raan": 265.2427,
      "ecc": 0.0002284,
      "argp": 100.2035,
      "nu": 259.9212,
      "mmo": 15.06386716,
      "a": 6925.38927
   },
   {
      "name": "STARLINK-1551",
      "line1": "1 46075U 20055BA  21092.83813590  .00001294  00000-0  10574-3 0  9991",
      "line2": "2 46075  53.0571 265.4187 0002162  92.1990 267.9247 15.06407504 37727",
      "bstar": 10.574,
      "inc": 53.0571,
      "raan": 265.4187,
      "ecc": 0.0002162,
      "argp": 92.199,
      "nu": 267.9247,
      "mmo": 15.06407504,
      "a": 6925.32556
   },
   {
      "name": "STARLINK-1552",
      "line1": "1 46076U 20055BB  21092.86393513  .00000138  00000-0  28177-4 0  9998",
      "line2": "2 46076  53.0576 265.3154 0002511  99.8151 260.3122 15.06401726 37715",
      "bstar": 2.8177,
      "inc": 53.0576,
      "raan": 265.3154,
      "ecc": 0.0002511,
      "argp": 99.8151,
      "nu": 260.3122,
      "mmo": 15.06401726,
      "a": 6925.34327
   },
   {
      "name": "STARLINK-1559",
      "line1": "1 46077U 20055BC  21092.84551158 -.00000965  00000-0 -45884-4 0  9992",
      "line2": "2 46077  53.0571 265.3881 0002156  91.5516 268.5720 15.06395869 37687",
      "bstar": -4.5884,
      "inc": 53.0571,
      "raan": 265.3881,
      "ecc": 0.0002156,
      "argp": 91.5516,
      "nu": 268.572,
      "mmo": 15.06395869,
      "a": 6925.36122
   },
   {
      "name": "STARLINK-1563",
      "line1": "1 46078U 20055BD  21092.88975238  .00002488  00000-0  18587-3 0  9995",
      "line2": "2 46078  53.0564 265.1931 0001978  91.7170 268.4046 15.06395265 37706",
      "bstar": 18.587,
      "inc": 53.0564,
      "raan": 265.1931,
      "ecc": 0.0001978,
      "argp": 91.717,
      "nu": 268.4046,
      "mmo": 15.06395265,
      "a": 6925.36307
   },
   {
      "name": "STARLINK-1566",
      "line1": "1 46079U 20055BE  21092.88236569 -.00000363  00000-0 -54171-5 0  9996",
      "line2": "2 46079  53.0581 265.2246 0002398  90.0786 270.0478 15.06397888 37732",
      "bstar": -0.54171,
      "inc": 53.0581,
      "raan": 265.2246,
      "ecc": 0.0002398,
      "argp": 90.0786,
      "nu": 270.0478,
      "mmo": 15.06397888,
      "a": 6925.35503
   },
   {
      "name": "STARLINK-1568",
      "line1": "1 46080U 20055BF  21092.90817053  .00000653  00000-0  62793-4 0  9992",
      "line2": "2 46080  53.0568 265.1088 0003506  88.8760 271.2630 15.06405042 37714",
      "bstar": 6.2793,
      "inc": 53.0568,
      "raan": 265.1088,
      "ecc": 0.0003506,
      "argp": 88.876,
      "nu": 271.263,
      "mmo": 15.06405042,
      "a": 6925.33311
   },
   {
      "name": "STARLINK-1571",
      "line1": "1 46081U 20055BG  21092.87500046 -.00000976  00000-0 -46641-4 0  9994",
      "line2": "2 46081  53.0555 265.2562 0001479 105.6946 254.4206 15.06393796 37725",
      "bstar": -4.6641,
      "inc": 53.0555,
      "raan": 265.2562,
      "ecc": 0.0001479,
      "argp": 105.6946,
      "nu": 254.4206,
      "mmo": 15.06393796,
      "a": 6925.36757
   },
   {
      "name": "STARLINK-1578",
      "line1": "1 46082U 20055BH  21092.89711778  .00000777  00000-0  71104-4 0  9992",
      "line2": "2 46082  53.0585 265.1574 0002565  90.3333 269.7950 15.06391128 37731",
      "bstar": 7.1104,
      "inc": 53.0585,
      "raan": 265.1574,
      "ecc": 0.0002565,
      "argp": 90.3333,
      "nu": 269.795,
      "mmo": 15.06391128,
      "a": 6925.37575
   },
   {
      "name": "STARLINK-1579",
      "line1": "1 46083U 20055BJ  21092.86761813  .00001039  00000-0  88623-4 0  9991",
      "line2": "2 46083  53.0575 265.2901 0002108 104.7942 255.3281 15.06406378 37726",
      "bstar": 8.8623,
      "inc": 53.0575,
      "raan": 265.2901,
      "ecc": 0.0002108,
      "argp": 104.7942,
      "nu": 255.3281,
      "mmo": 15.06406378,
      "a": 6925.32901
   },
   {
      "name": "FALCON 9 DEB (I)",
      "line1": "1 46084U 20055BK  21092.89400684  .00013322  00000-0  15331-3 0  9994",
      "line2": "2 46084  53.0131 208.8944 0013165   3.9763 356.1352 15.62289943 41847",
      "bstar": 15.331,
      "inc": 53.0131,
      "raan": 208.8944,
      "ecc": 0.0013165,
      "argp": 3.9763,
      "nu": 356.1352,
      "mmo": 15.62289943,
      "a": 6759.18111
   }
]